STARLINK-35652          
1 66393U 25257P   25326.58337963  .00017260  00000+0  12202-3 0  9995
2 66393  53.1553   0.9011 0001214  87.5753 336.9376 15.74166304  3259
STARLINK-35672          
1 66394U 25257Q   25326.58337963  .00169137  00000+0  11390-2 0  9993
2 66394  53.1555   0.8929 0001663  83.3411 344.9566 15.74129154  3254
STARLINK-35681          
1 66395U 25257R   25326.58337963  .00269020  00000+0  17905-2 0  9994
2 66395  53.1560   0.8895 0000523  86.7750 343.4236 15.74091870  3093
STARLINK-35669          
1 66396U 25257S   25326.58337963  .00147823  00000+0  99901-3 0  9998
2 66396  53.1561   0.8849 0000716  61.3757  10.7899 15.74118965  3256
STARLINK-35510          
1 66397U 25257T   25326.58337963  .00051400  00000+0  35385-3 0  9990
2 66397  53.1560   0.8804 0001699  86.0709 348.0035 15.74139573  3256
STARLINK-35642          
1 66398U 25257U   25326.58337963 -.00038063  00000+0 -25660-3 0  9998
2 66398  53.1568   0.8763 0000992  65.1706  10.8232 15.74203841  3252
STARLINK-35657          
1 66399U 25257V   25326.58337963 -.00034471  00000+0 -23192-3 0  9996
2 66399  53.1565   0.8726 0001030  71.8237   6.0906 15.74199203  3257
STARLINK-35667          
1 66400U 25257W   25326.58337963 -.00010589  00000+0 -68146-4 0  9992
2 66400  53.1563   0.8644 0001601  81.8586 359.9109 15.74167692  3251
STARLINK-35668          
1 66401U 25257X   25326.58337963 -.00007655  00000+0 -48042-4 0  9996
2 66401  53.1568   0.8604 0001009  63.6567  20.0184 15.74179496  3256
STARLINK-35644          
1 66402U 25257Y   25326.58337963 -.00043487  00000+0 -29406-3 0  9992
2 66402  53.1568   0.8680 0001837  84.0299 355.8028 15.74194259  3259
STARLINK-35602          
1 66403U 25257Z   25326.58337963 -.00075930  00000+0 -51777-3 0  9997
2 66403  53.1566   0.8564 0000997  76.6607   8.8873 15.74235877  3250
STARLINK-35691          
1 66404U 25257AA  25326.58337963  .00018028  00000+0  12725-3 0  9991
2 66404  53.1566   0.8522 0001085  82.1668   5.3369 15.74166637  3252
