CCSDS_OMM_VERS = 2.0
CREATION_DATE  = 
ORIGINATOR     = 

OBJECT_NAME    = STARLINK-35652
OBJECT_ID      = 2025-257P
CENTER_NAME    = EARTH
REF_FRAME      = TEME
TIME_SYSTEM    = UTC
MEAN_ELEMENT_THEORY = SGP/SGP4

EPOCH          = 2025-11-22T14:00:04.000032
MEAN_MOTION    = 15.74166304
ECCENTRICITY   = .00012146
INCLINATION    = 53.1553
RA_OF_ASC_NODE = 0.9011
ARG_OF_PERICENTER = 87.5753
MEAN_ANOMALY   = 336.9376

EPHEMERIS_TYPE = 0
CLASSIFICATION_TYPE = U
NORAD_CAT_ID   = 66393
ELEMENT_SET_NO = 999
REV_AT_EPOCH   = 325
BSTAR          = .12202098E-3
MEAN_MOTION_DOT = .1726E-3
MEAN_MOTION_DDOT = 0

CCSDS_OMM_VERS = 2.0
CREATION_DATE  = 
ORIGINATOR     = 

OBJECT_NAME    = STARLINK-35672
OBJECT_ID      = 2025-257Q
CENTER_NAME    = EARTH
REF_FRAME      = TEME
TIME_SYSTEM    = UTC
MEAN_ELEMENT_THEORY = SGP/SGP4

EPOCH          = 2025-11-22T14:00:04.000032
MEAN_MOTION    = 15.74129154
ECCENTRICITY   = .00016637
INCLINATION    = 53.1555
RA_OF_ASC_NODE = 0.8929
ARG_OF_PERICENTER = 83.3411
MEAN_ANOMALY   = 344.9566

EPHEMERIS_TYPE = 0
CLASSIFICATION_TYPE = U
NORAD_CAT_ID   = 66394
ELEMENT_SET_NO = 999
REV_AT_EPOCH   = 325
BSTAR          = .11390248E-2
MEAN_MOTION_DOT = .169137E-2
MEAN_MOTION_DDOT = 0

CCSDS_OMM_VERS = 2.0
CREATION_DATE  = 
ORIGINATOR     = 

OBJECT_NAME    = STARLINK-35681
OBJECT_ID      = 2025-257R
CENTER_NAME    = EARTH
REF_FRAME      = TEME
TIME_SYSTEM    = UTC
MEAN_ELEMENT_THEORY = SGP/SGP4

EPOCH          = 2025-11-22T14:00:04.000032
MEAN_MOTION    = 15.74091870
ECCENTRICITY   = .00005239
INCLINATION    = 53.1560
RA_OF_ASC_NODE = 0.8895
ARG_OF_PERICENTER = 86.7750
MEAN_ANOMALY   = 343.4236

EPHEMERIS_TYPE = 0
CLASSIFICATION_TYPE = U
NORAD_CAT_ID   = 66395
ELEMENT_SET_NO = 999
REV_AT_EPOCH   = 309
BSTAR          = .1790512E-2
MEAN_MOTION_DOT = .26902E-2
MEAN_MOTION_DDOT = 0

CCSDS_OMM_VERS = 2.0
CREATION_DATE  = 
ORIGINATOR     = 

OBJECT_NAME    = STARLINK-35669
OBJECT_ID      = 2025-257S
CENTER_NAME    = EARTH
REF_FRAME      = TEME
TIME_SYSTEM    = UTC
MEAN_ELEMENT_THEORY = SGP/SGP4

EPOCH          = 2025-11-22T14:00:04.000032
MEAN_MOTION    = 15.74118965
ECCENTRICITY   = .00007166
INCLINATION    = 53.1561
RA_OF_ASC_NODE = 0.8849
ARG_OF_PERICENTER = 61.3757
MEAN_ANOMALY   = 10.7899

EPHEMERIS_TYPE = 0
CLASSIFICATION_TYPE = U
NORAD_CAT_ID   = 66396
ELEMENT_SET_NO = 999
REV_AT_EPOCH   = 325
BSTAR          = .99901216E-3
MEAN_MOTION_DOT = .147823E-2
MEAN_MOTION_DDOT = 0

CCSDS_OMM_VERS = 2.0
CREATION_DATE  = 
ORIGINATOR     = 

OBJECT_NAME    = STARLINK-35510
OBJECT_ID      = 2025-257T
CENTER_NAME    = EARTH
REF_FRAME      = TEME
TIME_SYSTEM    = UTC
MEAN_ELEMENT_THEORY = SGP/SGP4

EPOCH          = 2025-11-22T14:00:04.000032
MEAN_MOTION    = 15.74139573
ECCENTRICITY   = .00016992
INCLINATION    = 53.1560
RA_OF_ASC_NODE = 0.8804
ARG_OF_PERICENTER = 86.0709
MEAN_ANOMALY   = 348.0035

EPHEMERIS_TYPE = 0
CLASSIFICATION_TYPE = U
NORAD_CAT_ID   = 66397
ELEMENT_SET_NO = 999
REV_AT_EPOCH   = 325
BSTAR          = .3538531E-3
MEAN_MOTION_DOT = .514E-3
MEAN_MOTION_DDOT = 0

CCSDS_OMM_VERS = 2.0
CREATION_DATE  = 
ORIGINATOR     = 

OBJECT_NAME    = STARLINK-35642
OBJECT_ID      = 2025-257U
CENTER_NAME    = EARTH
REF_FRAME      = TEME
TIME_SYSTEM    = UTC
MEAN_ELEMENT_THEORY = SGP/SGP4

EPOCH          = 2025-11-22T14:00:04.000032
MEAN_MOTION    = 15.74203841
ECCENTRICITY   = .00009923
INCLINATION    = 53.1568
RA_OF_ASC_NODE = 0.8763
ARG_OF_PERICENTER = 65.1706
MEAN_ANOMALY   = 10.8232

EPHEMERIS_TYPE = 0
CLASSIFICATION_TYPE = U
NORAD_CAT_ID   = 66398
ELEMENT_SET_NO = 999
REV_AT_EPOCH   = 325
BSTAR          = -.25660078E-3
MEAN_MOTION_DOT = -.38063E-3
MEAN_MOTION_DDOT = 0

CCSDS_OMM_VERS = 2.0
CREATION_DATE  = 
ORIGINATOR     = 

OBJECT_NAME    = STARLINK-35657
OBJECT_ID      = 2025-257V
CENTER_NAME    = EARTH
REF_FRAME      = TEME
TIME_SYSTEM    = UTC
MEAN_ELEMENT_THEORY = SGP/SGP4

EPOCH          = 2025-11-22T14:00:04.000032
MEAN_MOTION    = 15.74199203
ECCENTRICITY   = .00010306
INCLINATION    = 53.1565
RA_OF_ASC_NODE = 0.8726
ARG_OF_PERICENTER = 71.8237
MEAN_ANOMALY   = 6.0906

EPHEMERIS_TYPE = 0
CLASSIFICATION_TYPE = U
NORAD_CAT_ID   = 66399
ELEMENT_SET_NO = 999
REV_AT_EPOCH   = 325
BSTAR          = -.23192429E-3
MEAN_MOTION_DOT = -.34471E-3
MEAN_MOTION_DDOT = 0

CCSDS_OMM_VERS = 2.0
CREATION_DATE  = 
ORIGINATOR     = 

OBJECT_NAME    = STARLINK-35667
OBJECT_ID      = 2025-257W
CENTER_NAME    = EARTH
REF_FRAME      = TEME
TIME_SYSTEM    = UTC
MEAN_ELEMENT_THEORY = SGP/SGP4

EPOCH          = 2025-11-22T14:00:04.000032
MEAN_MOTION    = 15.74167692
ECCENTRICITY   = .00016015
INCLINATION    = 53.1563
RA_OF_ASC_NODE = 0.8644
ARG_OF_PERICENTER = 81.8586
MEAN_ANOMALY   = 359.9109

EPHEMERIS_TYPE = 0
CLASSIFICATION_TYPE = U
NORAD_CAT_ID   = 66400
ELEMENT_SET_NO = 999
REV_AT_EPOCH   = 325
BSTAR          = -.68146416E-4
MEAN_MOTION_DOT = -.10589E-3
MEAN_MOTION_DDOT = 0

CCSDS_OMM_VERS = 2.0
CREATION_DATE  = 
ORIGINATOR     = 

OBJECT_NAME    = STARLINK-35668
OBJECT_ID      = 2025-257X
CENTER_NAME    = EARTH
REF_FRAME      = TEME
TIME_SYSTEM    = UTC
MEAN_ELEMENT_THEORY = SGP/SGP4

EPOCH          = 2025-11-22T14:00:04.000032
MEAN_MOTION    = 15.74179496
ECCENTRICITY   = .00010093
INCLINATION    = 53.1568
RA_OF_ASC_NODE = 0.8604
ARG_OF_PERICENTER = 63.6567
MEAN_ANOMALY   = 20.0184

EPHEMERIS_TYPE = 0
CLASSIFICATION_TYPE = U
NORAD_CAT_ID   = 66401
ELEMENT_SET_NO = 999
REV_AT_EPOCH   = 325
BSTAR          = -.48042266E-4
MEAN_MOTION_DOT = -.7655E-4
MEAN_MOTION_DDOT = 0

CCSDS_OMM_VERS = 2.0
CREATION_DATE  = 
ORIGINATOR     = 

OBJECT_NAME    = STARLINK-35644
OBJECT_ID      = 2025-257Y
CENTER_NAME    = EARTH
REF_FRAME      = TEME
TIME_SYSTEM    = UTC
MEAN_ELEMENT_THEORY = SGP/SGP4

EPOCH          = 2025-11-22T14:00:04.000032
MEAN_MOTION    = 15.74194259
ECCENTRICITY   = .00018372
INCLINATION    = 53.1568
RA_OF_ASC_NODE = 0.8680
ARG_OF_PERICENTER = 84.0299
MEAN_ANOMALY   = 355.8028

EPHEMERIS_TYPE = 0
CLASSIFICATION_TYPE = U
NORAD_CAT_ID   = 66402
ELEMENT_SET_NO = 999
REV_AT_EPOCH   = 325
BSTAR          = -.29405823E-3
MEAN_MOTION_DOT = -.43487E-3
MEAN_MOTION_DDOT = 0

CCSDS_OMM_VERS = 2.0
CREATION_DATE  = 
ORIGINATOR     = 

OBJECT_NAME    = STARLINK-35602
OBJECT_ID      = 2025-257Z
CENTER_NAME    = EARTH
REF_FRAME      = TEME
TIME_SYSTEM    = UTC
MEAN_ELEMENT_THEORY = SGP/SGP4

EPOCH          = 2025-11-22T14:00:04.000032
MEAN_MOTION    = 15.74235877
ECCENTRICITY   = .00009976
INCLINATION    = 53.1566
RA_OF_ASC_NODE = 0.8564
ARG_OF_PERICENTER = 76.6607
MEAN_ANOMALY   = 8.8873

EPHEMERIS_TYPE = 0
CLASSIFICATION_TYPE = U
NORAD_CAT_ID   = 66403
ELEMENT_SET_NO = 999
REV_AT_EPOCH   = 325
BSTAR          = -.51776689E-3
MEAN_MOTION_DOT = -.7593E-3
MEAN_MOTION_DDOT = 0

CCSDS_OMM_VERS = 2.0
CREATION_DATE  = 
ORIGINATOR     = 

OBJECT_NAME    = STARLINK-35691
OBJECT_ID      = 2025-257AA
CENTER_NAME    = EARTH
REF_FRAME      = TEME
TIME_SYSTEM    = UTC
MEAN_ELEMENT_THEORY = SGP/SGP4

EPOCH          = 2025-11-22T14:00:04.000032
MEAN_MOTION    = 15.74166637
ECCENTRICITY   = .00010856
INCLINATION    = 53.1566
RA_OF_ASC_NODE = 0.8522
ARG_OF_PERICENTER = 82.1668
MEAN_ANOMALY   = 5.3369

EPHEMERIS_TYPE = 0
CLASSIFICATION_TYPE = U
NORAD_CAT_ID   = 66404
ELEMENT_SET_NO = 999
REV_AT_EPOCH   = 325
BSTAR          = .12724806E-3
MEAN_MOTION_DOT = .18028E-3
MEAN_MOTION_DDOT = 0

